{
  "links" : {
    "next" : "https://api.nasa.gov/neo/rest/v1/feed?start_date=1997-09-16&end_date=1997-09-16&detailed=true&api_key=t0TVs3DtDT2H8Oy2Zy8m2eVrNsAVKAexjcZXUckd",
    "prev" : "https://api.nasa.gov/neo/rest/v1/feed?start_date=1997-09-14&end_date=1997-09-14&detailed=true&api_key=t0TVs3DtDT2H8Oy2Zy8m2eVrNsAVKAexjcZXUckd",
    "self" : "https://api.nasa.gov/neo/rest/v1/feed?start_date=1997-09-15&end_date=1997-09-15&detailed=true&api_key=t0TVs3DtDT2H8Oy2Zy8m2eVrNsAVKAexjcZXUckd"
  },
  "element_count" : 6,
  "near_earth_objects" : {
    "1997-09-15" : [ {
      "links" : {
        "self" : "https://api.nasa.gov/neo/rest/v1/neo/3738932?api_key=t0TVs3DtDT2H8Oy2Zy8m2eVrNsAVKAexjcZXUckd"
      },
      "neo_reference_id" : "3738932",
      "name" : "(2015 YQ1)",
      "nasa_jpl_url" : "http://ssd.jpl.nasa.gov/sbdb.cgi?sstr=3738932",
      "absolute_magnitude_h" : 28.0,
      "estimated_diameter" : {
        "kilometers" : {
          "estimated_diameter_min" : 0.0066765941,
          "estimated_diameter_max" : 0.0149293183
        },
        "meters" : {
          "estimated_diameter_min" : 6.676594135,
          "estimated_diameter_max" : 14.9293183439
        },
        "miles" : {
          "estimated_diameter_min" : 0.004148642,
          "estimated_diameter_max" : 0.0092766455
        },
        "feet" : {
          "estimated_diameter_min" : 21.9048371017,
          "estimated_diameter_max" : 48.9807047955
        }
      },
      "is_potentially_hazardous_asteroid" : false,
      "close_approach_data" : [ {
        "close_approach_date" : "1997-09-15",
        "epoch_date_close_approach" : 874306800000,
        "relative_velocity" : {
          "kilometers_per_second" : "9.3331089649",
          "kilometers_per_hour" : "33599.1922735504",
          "miles_per_hour" : "20877.2314435292"
        },
        "miss_distance" : {
          "astronomical" : "0.3366062271",
          "lunar" : "130.9398193359",
          "kilometers" : "50355576",
          "miles" : "31289504"
        },
        "orbiting_body" : "Earth"
      } ],
      "orbital_data" : {
        "orbit_id" : "8",
        "orbit_determination_date" : "2017-04-06 08:29:39",
        "orbit_uncertainty" : "6",
        "minimum_orbit_intersection" : ".000615632",
        "jupiter_tisserand_invariant" : "5.990",
        "epoch_osculation" : "2458000.5",
        "eccentricity" : ".403957410850079",
        "semi_major_axis" : "1.003000184879345",
        "inclination" : "2.484442826425956",
        "ascending_node_longitude" : "88.87947254444529",
        "orbital_period" : "366.9018879396638",
        "perihelion_distance" : ".5978308271133341",
        "perihelion_argument" : "111.9793427923618",
        "aphelion_distance" : "1.408169542645356",
        "perihelion_time" : "2458176.955131839705",
        "mean_anomaly" : "186.8642120676685",
        "mean_motion" : ".9811887369170507",
        "equinox" : "J2000"
      }
    }, {
      "links" : {
        "self" : "https://api.nasa.gov/neo/rest/v1/neo/3747306?api_key=t0TVs3DtDT2H8Oy2Zy8m2eVrNsAVKAexjcZXUckd"
      },
      "neo_reference_id" : "3747306",
      "name" : "(2016 EE157)",
      "nasa_jpl_url" : "http://ssd.jpl.nasa.gov/sbdb.cgi?sstr=3747306",
      "absolute_magnitude_h" : 20.8,
      "estimated_diameter" : {
        "kilometers" : {
          "estimated_diameter_min" : 0.1838886721,
          "estimated_diameter_max" : 0.411187571
        },
        "meters" : {
          "estimated_diameter_min" : 183.8886720703,
          "estimated_diameter_max" : 411.1875710413
        },
        "miles" : {
          "estimated_diameter_min" : 0.1142630881,
          "estimated_diameter_max" : 0.2555000322
        },
        "feet" : {
          "estimated_diameter_min" : 603.309310875,
          "estimated_diameter_max" : 1349.040630575
        }
      },
      "is_potentially_hazardous_asteroid" : false,
      "close_approach_data" : [ {
        "close_approach_date" : "1997-09-15",
        "epoch_date_close_approach" : 874306800000,
        "relative_velocity" : {
          "kilometers_per_second" : "18.8302357689",
          "kilometers_per_hour" : "67788.8487680134",
          "miles_per_hour" : "42121.3543914359"
        },
        "miss_distance" : {
          "astronomical" : "0.3302083673",
          "lunar" : "128.4510498047",
          "kilometers" : "49398468",
          "miles" : "30694786"
        },
        "orbiting_body" : "Earth"
      } ],
      "orbital_data" : {
        "orbit_id" : "25",
        "orbit_determination_date" : "2017-04-06 08:27:29",
        "orbit_uncertainty" : "3",
        "minimum_orbit_intersection" : ".246075",
        "jupiter_tisserand_invariant" : "5.060",
        "epoch_osculation" : "2458000.5",
        "eccentricity" : ".4796976571226825",
        "semi_major_axis" : "1.21926488550087",
        "inclination" : "21.18611845778351",
        "ascending_node_longitude" : "172.6347353174506",
        "orbital_period" : "491.7513110933501",
        "perihelion_distance" : ".6343863765141468",
        "perihelion_argument" : "144.0981009413979",
        "aphelion_distance" : "1.804143394487593",
        "perihelion_time" : "2458062.361009722908",
        "mean_anomaly" : "314.712955516616",
        "mean_motion" : ".7320773567427469",
        "equinox" : "J2000"
      }
    }, {
      "links" : {
        "self" : "https://api.nasa.gov/neo/rest/v1/neo/3760958?api_key=t0TVs3DtDT2H8Oy2Zy8m2eVrNsAVKAexjcZXUckd"
      },
      "neo_reference_id" : "3760958",
      "name" : "(2016 TH56)",
      "nasa_jpl_url" : "http://ssd.jpl.nasa.gov/sbdb.cgi?sstr=3760958",
      "absolute_magnitude_h" : 22.4,
      "estimated_diameter" : {
        "kilometers" : {
          "estimated_diameter_min" : 0.0880146521,
          "estimated_diameter_max" : 0.1968067451
        },
        "meters" : {
          "estimated_diameter_min" : 88.0146520901,
          "estimated_diameter_max" : 196.8067450894
        },
        "miles" : {
          "estimated_diameter_min" : 0.0546897524,
          "estimated_diameter_max" : 0.122290004
        },
        "feet" : {
          "estimated_diameter_min" : 288.7619911632,
          "estimated_diameter_max" : 645.6914415591
        }
      },
      "is_potentially_hazardous_asteroid" : false,
      "close_approach_data" : [ {
        "close_approach_date" : "1997-09-15",
        "epoch_date_close_approach" : 874306800000,
        "relative_velocity" : {
          "kilometers_per_second" : "8.8107907531",
          "kilometers_per_hour" : "31718.8467111595",
          "miles_per_hour" : "19708.8578356091"
        },
        "miss_distance" : {
          "astronomical" : "0.4035645988",
          "lunar" : "156.9866333008",
          "kilometers" : "60372404",
          "miles" : "37513672"
        },
        "orbiting_body" : "Earth"
      } ],
      "orbital_data" : {
        "orbit_id" : "9",
        "orbit_determination_date" : "2017-04-24 06:22:06",
        "orbit_uncertainty" : "3",
        "minimum_orbit_intersection" : ".0518773",
        "jupiter_tisserand_invariant" : "5.182",
        "epoch_osculation" : "2458000.5",
        "eccentricity" : ".1890170104784331",
        "semi_major_axis" : "1.222292110944413",
        "inclination" : "13.70494915885895",
        "ascending_node_longitude" : "3.758694481389148",
        "orbital_period" : "493.5838485434683",
        "perihelion_distance" : ".9912581102023269",
        "perihelion_argument" : "129.0754122462184",
        "aphelion_distance" : "1.453326111686499",
        "perihelion_time" : "2457795.707021821356",
        "mean_anomaly" : "149.3676755466587",
        "mean_motion" : ".7293593602431179",
        "equinox" : "J2000"
      }
    } ]
  }
}